[{"OBJECT_NAME":"YAOGAN-25 01A","OBJECT_ID":"2014-080A","EPOCH":"2026-03-09T23:32:14.209728","MEAN_MOTION":13.45404366,"ECCENTRICITY":0.03579203,"INCLINATION":63.3877,"RA_OF_ASC_NODE":206.3701,"ARG_OF_PERICENTER":8.6689,"MEAN_ANOMALY":352.0301,"EPHEMERIS_TYPE":0,"CLASSIFICATION_TYPE":"U","NORAD_CAT_ID":40338,"ELEMENT_SET_NO":999,"REV_AT_EPOCH":55231,"BSTAR":-7.4174309e-5,"MEAN_MOTION_DOT":-1.55e-6,"MEAN_MOTION_DDOT":0},{"OBJECT_NAME":"COSMOS 367","OBJECT_ID":"1970-079A","EPOCH":"2026-03-09T22:33:50.676768","MEAN_MOTION":13.78562155,"ECCENTRICITY":0.00492577,"INCLINATION":65.2792,"RA_OF_ASC_NODE":311.0936,"ARG_OF_PERICENTER":115.2289,"MEAN_ANOMALY":245.3888,"EPHEMERIS_TYPE":0,"CLASSIFICATION_TYPE":"U","NORAD_CAT_ID":4564,"ELEMENT_SET_NO":999,"REV_AT_EPOCH":78943,"BSTAR":3.129103e-5,"MEAN_MOTION_DOT":-5.3e-7,"MEAN_MOTION_DDOT":0}]
